NORAD_CAT_ID,OBJECT_NAME,OBJECT_TYPE,EPOCH,MEAN_MOTION,ECCENTRICITY,INCLINATION,RA_OF_ASC_NODE,ARG_OF_PERICENTER,MEAN_ANOMALY,BSTAR,MEAN_MOTION_DOT,MEAN_MOTION_DDOT,TLE_LINE0,TLE_LINE1,TLE_LINE2,SEMIMAJOR_AXIS,PERIOD,APOGEE,PERIGEE,DECAYED
53031.0,STARLINK-4137,PAYLOAD,2023-10-10 16:40:12,15.08850575,0.0001569,53.2178,69.0643,84.1602,275.9569,0.00025428,3.762e-05,0.0,0 STARLINK-4137,1 53031U 22076AX  23283.69458666  .00003762  00000-0  25428-3 0  9999,2 53031  53.2178  69.0643 0001569  84.1602 275.9569 15.08850575 70127,6917.848,95.437,540.798,538.628,0.0
53031.0,STARLINK-4137,PAYLOAD,2023-10-11 13:20:13,15.08838936,0.0001316,53.2179,65.199,78.46,281.654,9.6292e-05,1.245e-05,0.0,0 STARLINK-4137,1 53031U 22076AX  23284.55571278  .00001245  00000-0  96292-4 0  9992,2 53031  53.2179  65.1990 0001316  78.4600 281.6540 15.08838936 70720,6917.884,95.438,540.659,538.838,0.0
53031.0,STARLINK-4137,PAYLOAD,2023-10-12 14:46:23,15.0884327,0.0001566,53.219,60.4398,101.9369,258.1799,0.00013808,1.91e-05,0.0,0 STARLINK-4137,1 53031U 22076AX  23285.61555124  .00001910  00000-0  13808-3 0  9992,2 53031  53.2190  60.4398 0001566 101.9369 258.1799 15.08843270 70412,6917.87,95.437,540.819,538.652,0.0
53031.0,STARLINK-4137,PAYLOAD,2023-10-12 16:21:46,15.08845249,0.0001431,53.2183,60.1436,99.5757,260.5397,0.00017109,2.436e-05,0.0,0 STARLINK-4137,1 53031U 22076AX  23285.68178936  .00002436  00000-0  17109-3 0  9993,2 53031  53.2183  60.1436 0001431  99.5757 260.5397 15.08845249 70899,6917.864,95.437,540.719,538.739,0.0
53031.0,STARLINK-4137,PAYLOAD,2023-10-13 13:01:47,15.08830318,0.0001262,53.218,56.2753,91.3278,268.7859,-9.4509e-05,-1.791e-05,0.0,0 STARLINK-4137,1 53031U 22076AX  23286.54291652 -.00001791  00000-0 -94509-4 0  9995,2 53031  53.2180  56.2753 0001262  91.3278 268.7859 15.08830318 71024,6917.91,95.438,540.648,538.902,0.0
53031.0,STARLINK-4137,PAYLOAD,2023-10-13 14:37:10,15.08842178,0.0001337,53.2165,55.9755,116.4823,243.6306,0.00010065,1.314e-05,0.0,0 STARLINK-4137,1 53031U 22076AX  23286.60915112  .00001314  00000-0  10065-3 0  9999,2 53031  53.2165  55.9755 0001337 116.4823 243.6306 15.08842178 70567,6917.874,95.437,540.664,538.814,0.0
53031.0,STARLINK-4137,PAYLOAD,2023-10-13 16:12:34,15.08843027,0.0001453,53.2182,55.6813,75.1255,284.9898,0.00015814,2.23e-05,0.0,0 STARLINK-4137,1 53031U 22076AX  23286.67539433  .00002230  00000-0  15814-3 0  9999,2 53031  53.2182  55.6813 0001453  75.1255 284.9898 15.08843027 71049,6917.871,95.437,540.741,538.731,0.0
53031.0,STARLINK-4137,PAYLOAD,2023-10-14 12:52:35,15.08841434,0.0001387,53.2175,51.8154,84.1717,275.9433,0.00012793,1.749e-05,0.0,0 STARLINK-4137,1 53031U 22076AX  23287.53651655  .00001749  00000-0  12793-3 0  9993,2 53031  53.2175  51.8154 0001387  84.1717 275.9433 15.08841434 70703,6917.876,95.437,540.701,538.781,0.0
53031.0,STARLINK-4137,PAYLOAD,2023-10-14 17:38:43,15.08854254,0.0001532,53.2184,50.921,76.4816,283.6347,0.00022761,3.338e-05,0.0,0 STARLINK-4137,1 53031U 22076AX  23287.73522877  .00003338  00000-0  22761-3 0  9990,2 53031  53.2184  50.9210 0001532  76.4816 283.6347 15.08854254 71202,6917.837,95.437,540.762,538.642,0.0
53031.0,STARLINK-4137,PAYLOAD,2023-10-15 12:43:22,15.08830948,0.0001143,53.2183,47.3562,89.4315,270.6808,8.7641e-05,1.107e-05,0.0,0 STARLINK-4137,1 53031U 22076AX  23288.53012323  .00001107  00000-0  87641-4 0  9990,2 53031  53.2183  47.3562 0001143  89.4315 270.6808 15.08830948 71322,6917.908,95.438,540.564,538.982,0.0
53031.0,STARLINK-4137,PAYLOAD,2023-10-15 14:18:45,15.08835847,0.0001397,53.218,47.0583,79.5513,280.5637,1.5428e-05,-4.2e-07,0.0,0 STARLINK-4137,1 53031U 22076AX  23288.59636193 -.00000042  00000-0  15428-4 0  9995,2 53031  53.2180  47.0583 0001397  79.5513 280.5637 15.08835847 70861,6917.893,95.438,540.725,538.792,0.0
53031.0,STARLINK-4137,PAYLOAD,2023-10-16 12:34:09,15.08846749,0.000136,53.2186,42.8942,96.9164,263.1983,0.00010277,1.348e-05,0.0,0 STARLINK-4137,1 53031U 22076AX  23289.52371912  .00001348  00000-0  10277-3 0  9999,2 53031  53.2186  42.8942 0001360  96.9164 263.1983 15.08846749 71476,6917.86,95.437,540.666,538.784,0.0
53031.0,STARLINK-4137,PAYLOAD,2023-10-16 14:09:32,15.08851551,0.0001347,53.2184,42.5976,96.9347,263.1799,0.00018999,2.738e-05,0.0,0 STARLINK-4137,1 53031U 22076AX  23289.58995698  .00002738  00000-0  18999-3 0  9991,2 53031  53.2184  42.5976 0001347  96.9347 263.1799 15.08851551 71018,6917.845,95.437,540.642,538.778,0.0
53031.0,STARLINK-4137,PAYLOAD,2023-10-16 17:20:18,15.08852991,0.0001401,53.218,42.0019,102.7913,257.3236,0.00038587,5.861e-05,0.0,0 STARLINK-4137,1 53031U 22076AX  23289.72243738  .00005861  00000-0  38587-3 0  9993,2 53031  53.2180  42.0019 0001401 102.7913 257.3236 15.08852991 71035,6917.841,95.437,540.675,538.736,0.0
53031.0,STARLINK-4137,PAYLOAD,2023-10-17 12:24:56,15.08844377,0.0001673,53.2191,38.43,103.1178,257.0001,0.00017149,2.443e-05,0.0,0 STARLINK-4137,1 53031U 22076AX  23290.51732121  .00002443  00000-0  17149-3 0  9995,2 53031  53.2191  38.4300 0001673 103.1178 257.0001 15.08844377 71629,6917.867,95.437,540.889,538.575,0.0
53031.0,STARLINK-4137,PAYLOAD,2023-10-17 17:11:05,15.08847043,0.0001726,53.2197,37.5382,113.3534,246.764,0.00013137,1.804e-05,0.0,0 STARLINK-4137,1 53031U 22076AX  23290.71603857  .00001804  00000-0  13137-3 0  9993,2 53031  53.2197  37.5382 0001726 113.3534 246.7640 15.08847043 71181,6917.859,95.437,540.918,538.53,0.0
53031.0,STARLINK-4137,PAYLOAD,2023-10-18 13:51:06,15.08846551,0.000128,53.2176,33.6765,89.5016,270.6123,2.7653e-05,1.52e-06,0.0,0 STARLINK-4137,1 53031U 22076AX  23291.57715793  .00000152  00000-0  27653-4 0  9995,2 53031  53.2176  33.6765 0001280  89.5016 270.6123 15.08846551 71785,6917.86,95.437,540.611,538.84,0.0
53031.0,STARLINK-4137,PAYLOAD,2023-10-19 12:06:30,15.08852427,0.0001664,53.219,29.5151,89.0661,271.0522,0.00013519,1.865e-05,0.0,0 STARLINK-4137,1 53031U 22076AX  23292.50451453  .00001865  00000-0  13519-3 0  9996,2 53031  53.2190  29.5151 0001664  89.0661 271.0522 15.08852427 71452,6917.842,95.437,540.859,538.556,0.0
53031.0,STARLINK-4137,PAYLOAD,2023-10-19 23:14:12,15.08846783,0.0001445,53.2173,27.4308,84.7891,275.3266,9.7824e-05,1.27e-05,0.0,0 STARLINK-4137,1 53031U 22076AX  23292.96819528  .00001270  00000-0  97824-4 0  9999,2 53031  53.2173  27.4308 0001445  84.7891 275.3266 15.08846783 71997,6917.86,95.437,540.724,538.725,0.0
53031.0,STARLINK-4137,PAYLOAD,2023-10-20 11:57:17,15.08833918,0.0001716,53.2186,25.0585,105.5292,254.5889,-3.3098e-05,-8.15e-06,0.0,0 STARLINK-4137,1 53031U 22076AX  23293.49812398 -.00000815  00000-0 -33098-4 0  9995,2 53031  53.2186  25.0585 0001716 105.5292 254.5889 15.08833918 72076,6917.899,95.438,540.951,538.577,0.0
53031.0,STARLINK-4137,PAYLOAD,2023-10-21 11:48:04,15.08842253,0.0001849,53.2192,20.5953,100.9955,259.1246,3.773e-05,3.12e-06,0.0,0 STARLINK-4137,1 53031U 22076AX  23294.49172248  .00000312  00000-0  37730-4 0  9996,2 53031  53.2192  20.5953 0001849 100.9955 259.1246 15.08842253 72221,6917.874,95.437,541.018,538.459,0.0
53031.0,STARLINK-4137,PAYLOAD,2023-10-22 11:38:52,15.08835269,0.0001707,53.2192,16.1345,103.7674,256.3508,0.00010947,1.454e-05,0.0,0 STARLINK-4137,1 53031U 22076AX  23295.48532961  .00001454  00000-0  10947-3 0  9996,2 53031  53.2192  16.1345 0001707 103.7674 256.3508 15.08835269 72374,6917.895,95.438,540.941,538.579,0.0
53031.0,STARLINK-4137,PAYLOAD,2023-10-22 13:14:15,15.08841053,0.0001529,53.2187,15.837,100.0249,260.0916,0.00018954,2.73e-05,0.0,0 STARLINK-4137,1 53031U 22076AX  23295.55156669  .00002730  00000-0  18954-3 0  9995,2 53031  53.2187  15.8370 0001529 100.0249 260.0916 15.08841053 71914,6917.877,95.437,540.8,538.684,0.0
53031.0,STARLINK-4137,PAYLOAD,2023-10-23 11:29:39,15.08841473,0.0001597,53.2201,11.6709,116.0345,244.0812,7.0167e-05,8.29e-06,0.0,0 STARLINK-4137,1 53031U 22076AX  23296.47892951  .00000829  00000-0  70167-4 0  9990,2 53031  53.2201  11.6709 0001597 116.0345 244.0812 15.08841473 72059,6917.876,95.437,540.846,538.636,0.0
53031.0,STARLINK-4137,PAYLOAD,2023-10-24 04:58:54,15.0883486,0.0001338,53.2199,8.4001,106.0698,254.0441,0.00012321,1.673e-05,0.0,0 STARLINK-4137,1 53031U 22076AX  23297.20757497  .00001673  00000-0  12321-3 0  9992,2 53031  53.2199   8.4001 0001338 106.0698 254.0441 15.08834860 72632,6917.896,95.438,540.687,538.835,0.0
53031.0,STARLINK-4137,PAYLOAD,2023-10-24 11:20:26,15.08843501,0.0001573,53.2188,7.212,97.7719,262.3451,0.00010495,1.383e-05,0.0,0 STARLINK-4137,1 53031U 22076AX  23297.47253216  .00001383  00000-0  10495-3 0  9999,2 53031  53.2188   7.2120 0001573  97.7719 262.3451 15.08843501 72208,6917.87,95.437,540.823,538.647,0.0
53031.0,STARLINK-4137,PAYLOAD,2023-10-25 11:11:13,15.08848059,0.000141,53.2178,2.7526,94.0834,266.0319,0.0001681,2.389e-05,0.0,0 STARLINK-4137,1 53031U 22076AX  23298.46612949  .00002389  00000-0  16810-3 0  9995,2 53031  53.2178   2.7526 0001410  94.0834 266.0319 15.08848059 72820,6917.856,95.437,540.696,538.745,0.0
53031.0,STARLINK-4137,PAYLOAD,2023-10-26 04:40:28,15.088406,0.0001505,53.2176,359.4825,90.5545,269.562,0.00016438,2.329e-05,0.0,0 STARLINK-4137,1 53031U 22076AX  23299.19477251  .00002329  00000-0  16438-3 0  9991,2 53031  53.2176 359.4825 0001505  90.5545 269.5620 15.08840600 72936,6917.879,95.438,540.785,538.702,0.0
53031.0,STARLINK-4137,PAYLOAD,2023-10-26 11:02:00,15.08846,0.0001519,53.2176,358.2933,93.1588,266.9578,0.00010513,1.386e-05,0.0,0 STARLINK-4137,1 53031U 22076AX  23299.45972864  .00001386  00000-0  10513-3 0  9990,2 53031  53.2176 358.2933 0001519  93.1588 266.9578 15.08846000 72500,6917.862,95.437,540.778,538.676,0.0
53031.0,STARLINK-4137,PAYLOAD,2023-10-26 20:34:19,15.08845501,0.000149,53.218,356.5079,95.9797,264.1365,0.00010346,1.359e-05,0.0,0 STARLINK-4137,1 53031U 22076AX  23299.85716828  .00001359  00000-0  10346-3 0  9994,2 53031  53.2180 356.5079 0001490  95.9797 264.1365 15.08845501 72562,6917.864,95.437,540.759,538.698,0.0
